#aV2014  1 16  0  0  0.00000000     288 DD+AD WGS84 FIT  NGA
## 1775 345600.00000000   300.00000000 56673 0.0000000000000
+   31     1  2  3  4  5  6  7  8  9 10 11 12 13 14 15 16 17
+         18 19 20 21 22 23 24 25 26 27 28 29 31 32  0  0  0
+          0  0  0  0  0  0  0  0  0  0  0  0  0  0  0  0  0
+          0  0  0  0  0  0  0  0  0  0  0  0  0  0  0  0  0
+          0  0  0  0  0  0  0  0  0  0  0  0  0  0  0  0  0
++         2  2  2  2  2  2  2  2  2  2  2  2  2  2  2  2  2
++         2  2  2  2  2  2  2  2  2  2  2  2  2  2  0  0  0
++         0  0  0  0  0  0  0  0  0  0  0  0  0  0  0  0  0
++         0  0  0  0  0  0  0  0  0  0  0  0  0  0  0  0  0
++         0  0  0  0  0  0  0  0  0  0  0  0  0  0  0  0  0
%c cc cc ccc ccc cccc cccc cccc cccc ccccc ccccc ccccc ccccc
%c cc cc ccc ccc cccc cccc cccc cccc ccccc ccccc ccccc ccccc
%f  0.0000000  0.000000000  0.00000000000  0.000000000000000
%f  0.0000000  0.000000000  0.00000000000  0.000000000000000
%i    0    0    0    0      0      0      0      0         0
%i    0    0    0    0      0      0      0      0         0
/*      NGA, ST. LOUIS,MO.                                  
/*   EPHEMERIS COMPUTED FROM  1 DAYS OF DATA                
/*   EPOCHA SMOOTHER                                       
/* CCCCCCCCCCCCCCCCCCCCCCCCCCCCCCCCCCCCCCCCCCCCCCCCCCCCCCCCC
*  2014  1 16 13  0  0.00000000
P  1  21342.661148  13685.914525  -8149.194433    100.851519                    
V  1 -10517.067943  -1088.717226 -29380.012960      0.024670                    
P  2  -1208.837680 -16591.598958  21040.736146    473.091982                    
V  2  24999.714113   7630.037270   7037.735447      0.022009                    
P  3  -1661.470668  20807.621135 -16867.371117    313.197792                    
V  3 -15126.282557  14076.480134  19653.329370      0.051250                    
P  4  15754.118907  -9306.228408  19026.431985      4.878412                    
V  4  22953.361546   9549.732513 -13864.404344      0.001708                    
P  5  -2118.542896 -26102.303688   3849.053877   -392.160132                    
V  5   4206.216827   4262.785484  31043.330015      0.012961                    
P  6 -10122.490446  21481.200734 -11424.657994    237.936270                    
V  6 -12762.550206   8068.602579  26757.112525      0.153501                    
P  7  25478.293179   5236.102034  -6091.516971    303.354940                    
V  7   6518.604349   4653.178296  30601.534926      0.041517                    
P  8  21255.349310  -1111.711533 -16124.034544     11.346776                    
V  8  17964.041620   9770.685081  22219.078507      0.002405                    
P  9  20552.685798  -4590.795883 -16807.997718    298.436452                    
V  9  18688.188155   7843.262188  21240.371936      0.028184                    
P 10  10633.139461 -15748.823900  18051.229903   -110.244076                    
V 10   6098.587973  23114.680350  16699.523520     -0.016418                    
P 11  16307.518701  13773.701335 -16415.124912   -456.050457                    
V 11 -20226.427990   2235.130903 -18545.231339     -0.032678                    
P 12 -11225.581175 -20869.746222  12165.645850    180.567341                    
V 12   -729.951330 -15464.996466 -26884.715049      0.023141                    
P 13  21083.814415  -1419.485840  16044.752462     39.317567                    
V 13 -16072.483025  12851.363389  21932.329708     -0.038069                    
P 14 -21879.251504  14823.711416  -1468.771001    204.447805                    
V 14    177.868521  -3354.920785 -32019.995258     -0.012489                    
P 15  -6988.299862 -14561.948339 -21094.035011   -157.928149                    
V 15  20288.143956 -17536.981045   5683.152712     -0.020394                    
P 16   1026.626718  26112.114124   3514.113100   -235.171022                    
V 16  -2820.955263  -4205.770193  32139.118923      0.013779                    
P 17  21194.124838 -15741.127637  -1008.173949    -59.726280                    
V 17    488.355239   3185.749750 -32034.132476     -0.034443                    
P 18 -16160.975344  -1984.356213 -20597.916949    296.456913                    
V 18  -4512.124222 -26865.889143   5670.150703      0.021607                    
P 19   4866.651468  14835.561878 -21555.382567   -432.586715                    
V 19 -22553.054489  15093.437277   5754.637235     -0.025219                    
P 20  14575.164717  17800.507547  13144.920624    153.454895                    
V 20   1134.209483  17294.076437 -24247.028699      0.032098                    
P 21 -25538.622619  -3633.427131  -6692.589459   -338.528012                    
V 21  -7627.159709  -6094.172154  29239.838856     -0.021566                    
P 22 -12933.055783  11824.816350 -19721.569051    207.197789                    
V 22  -6262.796030 -24931.877975 -10886.574164      0.024021                    
P 23  14103.800986   7865.517411  21239.325536     12.196810                    
V 23 -20201.814417  17483.146517   6572.243983     -0.032679                    
P 24 -18014.131811 -15268.929589 -12245.594861    -21.640435                    
V 24  15437.137893   2806.066586 -26142.231272     -0.006258                    
P 25 -15346.897212  -8688.998372  19841.194688      9.393412                    
V 25  -3758.113021 -24977.655249 -13691.123531      0.022561                    
P 26   6510.004248 -19151.013146 -17695.668773    192.458143                    
V 26  18246.734411 -11050.480849  19702.906421     -0.106088                    
P 27  -8005.942329  20506.611156 -14842.788155    -14.722939                    
V 27 -15630.107874  10732.247620  23292.325031     -0.019625                    
P 28  13001.757922  -8306.178283 -20989.302089    325.063164                    
V 28   4102.180243  27754.407637  -8353.678456      0.030110                    
P 29 -19202.428836  -1127.983048  18341.664525    503.723198                    
V 29  17512.060363 -15274.876400  17474.773087      0.028776                    
P 31 -12553.308057  10412.964774  21193.433561    332.402456                    
V 31 -24460.046895  -9947.523874  -9377.653155      0.003640                    
P 32   6073.960321  25704.404839   4910.355067   -500.926312                    
V 32  -2079.041360   6293.414132 -30300.700211      0.056841                    
EOF
